[{"OBJECT_NAME":"STARLINK-5659","OBJECT_ID":"2023-013W","EPOCH":"2026-03-09T00:51:15.306912","MEAN_MOTION":15.02535253,"ECCENTRICITY":8.916e-5,"INCLINATION":43.0035,"RA_OF_ASC_NODE":303.6599,"ARG_OF_PERICENTER":278.5942,"MEAN_ANOMALY":81.48,"EPHEMERIS_TYPE":0,"CLASSIFICATION_TYPE":"U","NORAD_CAT_ID":55351,"ELEMENT_SET_NO":999,"REV_AT_EPOCH":17161,"BSTAR":8.97847e-7,"MEAN_MOTION_DOT":-1.91e-6,"MEAN_MOTION_DDOT":0},{"OBJECT_NAME":"COSMOS 434 DEB","OBJECT_ID":"1971-069C","EPOCH":"2026-03-09T06:41:44.243520","MEAN_MOTION":14.88540959,"ECCENTRICITY":0.00573215,"INCLINATION":49.5268,"RA_OF_ASC_NODE":92.2564,"ARG_OF_PERICENTER":343.1408,"MEAN_ANOMALY":16.762,"EPHEMERIS_TYPE":0,"CLASSIFICATION_TYPE":"U","NORAD_CAT_ID":5426,"ELEMENT_SET_NO":999,"REV_AT_EPOCH":87280,"BSTAR":0.00069493899,"MEAN_MOTION_DOT":6.493e-5,"MEAN_MOTION_DDOT":0}]
